[{"OBJECT_NAME":"JILIN-1 08","OBJECT_ID":"2018-008F","EPOCH":"2026-03-09T22:37:53.184288","MEAN_MOTION":15.32205976,"ECCENTRICITY":0.00081321,"INCLINATION":97.1902,"RA_OF_ASC_NODE":90.9961,"ARG_OF_PERICENTER":76.0646,"MEAN_ANOMALY":284.15,"EPHEMERIS_TYPE":0,"CLASSIFICATION_TYPE":"U","NORAD_CAT_ID":43160,"ELEMENT_SET_NO":999,"REV_AT_EPOCH":44974,"BSTAR":0.00036689195,"MEAN_MOTION_DOT":0.00011349,"MEAN_MOTION_DDOT":0},{"OBJECT_NAME":"STARLINK-35279","OBJECT_ID":"2025-235M","EPOCH":"2026-03-09T21:17:33.186624","MEAN_MOTION":15.30200113,"ECCENTRICITY":0.00012273,"INCLINATION":53.1593,"RA_OF_ASC_NODE":244.2127,"ARG_OF_PERICENTER":79.9191,"MEAN_ANOMALY":280.1948,"EPHEMERIS_TYPE":0,"CLASSIFICATION_TYPE":"U","NORAD_CAT_ID":66069,"ELEMENT_SET_NO":999,"REV_AT_EPOCH":2295,"BSTAR":0.0013731138,"MEAN_MOTION_DOT":0.00040531,"MEAN_MOTION_DDOT":0}]
